NORAD_CAT_ID,OBJECT_NAME,OBJECT_TYPE,EPOCH,MEAN_MOTION,ECCENTRICITY,INCLINATION,RA_OF_ASC_NODE,ARG_OF_PERICENTER,MEAN_ANOMALY,BSTAR,MEAN_MOTION_DOT,MEAN_MOTION_DDOT,TLE_LINE0,TLE_LINE1,TLE_LINE2,SEMIMAJOR_AXIS,PERIOD,APOGEE,PERIGEE,DECAYED
55291.0,STARLINK-5327,PAYLOAD,2024-02-08 14:19:05,14.98323866,0.0002737,70.0012,140.962,269.7745,90.3101,-7.4883e-05,-9.86e-06,0.0,0 STARLINK-5327,1 55291U 23010Y   24039.59658844 -.00000986  00000-0 -74883-4 0  9994,2 55291  70.0012 140.9620 0002737 269.7745  90.3101 14.98323866 59418,6950.212,96.107,573.979,570.175,0.0
55291.0,STARLINK-5327,PAYLOAD,2024-02-08 15:55:13,14.98324345,0.0002823,70.0014,140.7946,268.8104,91.2732,-3.1079e-05,-4.64e-06,0.0,0 STARLINK-5327,1 55291U 23010Y   24039.66334678 -.00000464  00000-0 -31079-4 0  9999,2 55291  70.0014 140.7946 0002823 268.8104  91.2732 14.98324345 59114,6950.21,96.107,574.037,570.113,0.0
55291.0,STARLINK-5327,PAYLOAD,2024-02-09 14:21:08,14.98295326,0.0003099,70.0008,138.4371,264.6496,95.431,-0.0003568,-4.344e-05,0.0,0 STARLINK-5327,1 55291U 23010Y   24040.59801457 -.00004344  00000-0 -35680-3 0  9999,2 55291  70.0008 138.4371 0003099 264.6496  95.4310 14.98295326 59560,6950.3,96.109,574.319,570.011,0.0
55291.0,STARLINK-5327,PAYLOAD,2024-02-09 15:57:16,14.9829769,0.0003112,70.0008,138.2687,273.0299,87.0504,-0.000321,-3.918e-05,0.0,0 STARLINK-5327,1 55291U 23010Y   24040.66477451 -.00003918  00000-0 -32100-3 0  9990,2 55291  70.0008 138.2687 0003112 273.0299  87.0504 14.98297690 59264,6950.293,96.109,574.321,569.995,0.0
55291.0,STARLINK-5327,PAYLOAD,2024-02-10 11:10:51,14.98324588,0.0003207,70.0009,136.2513,261.7035,98.3761,0.00011404,1.268e-05,0.0,0 STARLINK-5327,1 55291U 23010Y   24041.46587340  .00001268  00000-0  11404-3 0  9996,2 55291  70.0009 136.2513 0003207 261.7035  98.3761 14.98324588 59388,6950.21,96.107,574.304,569.846,0.0
55291.0,STARLINK-5327,PAYLOAD,2024-02-10 12:46:59,14.98319978,0.000286,70.0011,136.0796,260.3404,99.7432,5.7226e-05,5.9e-06,0.0,0 STARLINK-5327,1 55291U 23010Y   24041.53263858  .00000590  00000-0  57226-4 0  9999,2 55291  70.0011 136.0796 0002860 260.3404  99.7432 14.98319978 59704,6950.224,96.108,574.077,570.101,0.0
55291.0,STARLINK-5327,PAYLOAD,2024-02-10 15:59:15,14.98323793,0.0002848,70.0017,135.7435,264.7789,95.3045,0.00016855,1.918e-05,0.0,0 STARLINK-5327,1 55291U 23010Y   24041.66615384  .00001918  00000-0  16855-3 0  9995,2 55291  70.0017 135.7435 0002848 264.7789  95.3045 14.98323793 59720,6950.212,96.107,574.057,570.098,0.0
55291.0,STARLINK-5327,PAYLOAD,2024-02-11 11:12:50,14.98339891,0.0003676,70.0003,133.7218,275.9868,84.0872,0.00032791,3.823e-05,0.0,0 STARLINK-5327,1 55291U 23010Y   24042.46725325  .00003823  00000-0  32791-3 0  9995,2 55291  70.0003 133.7218 0003676 275.9868  84.0872 14.98339891 59532,6950.162,96.106,574.582,569.472,0.0
55291.0,STARLINK-5327,PAYLOAD,2024-02-11 14:25:06,14.98346688,0.0003461,70.0008,133.3872,271.4473,88.6289,0.0003561,4.16e-05,0.0,0 STARLINK-5327,1 55291U 23010Y   24042.60076701  .00004160  00000-0  35610-3 0  9996,2 55291  70.0008 133.3872 0003461 271.4473  88.6289 14.98346688 59864,6950.141,96.106,574.412,569.601,0.0
55291.0,STARLINK-5327,PAYLOAD,2024-02-11 16:01:14,14.98350316,0.0003452,70.001,133.2198,271.3084,88.7679,0.00035684,4.17e-05,0.0,0 STARLINK-5327,1 55291U 23010Y   24042.66752406  .00004170  00000-0  35684-3 0  9997,2 55291  70.0010 133.2198 0003452 271.3084  88.7679 14.98350316 59568,6950.13,96.106,574.394,569.596,0.0
55291.0,STARLINK-5327,PAYLOAD,2024-02-12 11:14:52,14.98337891,0.0003659,70.0003,131.2,265.633,94.4411,-3.8275e-05,-5.5e-06,0.0,0 STARLINK-5327,1 55291U 23010Y   24043.46865936 -.00000550  00000-0 -38275-4 0  9999,2 55291  70.0003 131.2000 0003659 265.6330  94.4411 14.98337891 59683,6950.168,96.106,574.577,569.49,0.0
55291.0,STARLINK-5327,PAYLOAD,2024-02-12 14:27:08,14.98336846,0.0003705,70.0001,130.8631,265.3603,94.7133,-5.2075e-05,-7.15e-06,0.0,0 STARLINK-5327,1 55291U 23010Y   24043.60217952 -.00000715  00000-0 -52075-4 0  9991,2 55291  70.0001 130.8631 0003705 265.3603  94.7133 14.98336846 60010,6950.172,96.107,574.612,569.462,0.0
55291.0,STARLINK-5327,PAYLOAD,2024-02-12 16:03:16,14.98336936,0.0003708,70.0001,130.6948,265.5681,94.5055,-5.129e-05,-7.05e-06,0.0,0 STARLINK-5327,1 55291U 23010Y   24043.66893901 -.00000705  00000-0 -51290-4 0  9998,2 55291  70.0001 130.6948 0003708 265.5681  94.5055 14.98336936 60022,6950.171,96.107,574.614,569.459,0.0
55291.0,STARLINK-5327,PAYLOAD,2024-02-13 11:16:53,14.9833482,0.0003236,70.001,128.6752,261.4631,98.6161,-0.0002312,-2.851e-05,0.0,0 STARLINK-5327,1 55291U 23010Y   24044.47006227 -.00002851  00000-0 -23120-3 0  9999,2 55291  70.0010 128.6752 0003236 261.4631  98.6161 14.98334820 59838,6950.178,96.107,574.292,569.794,0.0
55291.0,STARLINK-5327,PAYLOAD,2024-02-13 14:29:09,14.98339274,0.0003263,70.0008,128.3383,262.6625,97.4163,-0.00019782,-2.453e-05,0.0,0 STARLINK-5327,1 55291U 23010Y   24044.60357808 -.00002453  00000-0 -19782-3 0  9995,2 55291  70.0008 128.3383 0003263 262.6625  97.4163 14.98339274 60163,6950.164,96.106,574.297,569.761,0.0
55291.0,STARLINK-5327,PAYLOAD,2024-02-13 22:29:49,14.98338328,0.0003051,70.0013,127.4971,264.0181,96.063,-0.00011506,-1.466e-05,0.0,0 STARLINK-5327,1 55291U 23010Y   24044.93737543 -.00001466  00000-0 -11506-3 0  9998,2 55291  70.0013 127.4971 0003051 264.0181  96.0630 14.98338328 60219,6950.167,96.106,574.153,569.912,0.0
55291.0,STARLINK-5327,PAYLOAD,2024-02-14 14:31:09,14.98336113,0.0003072,70.0009,125.8138,258.0204,102.0611,9.5866e-05,1.051e-05,0.0,0 STARLINK-5327,1 55291U 23010Y   24045.60496817  .00001051  00000-0  95866-4 0  9999,2 55291  70.0009 125.8138 0003072 258.0204 102.0611 14.98336113 60311,6950.174,96.107,574.174,569.904,0.0
55291.0,STARLINK-5327,PAYLOAD,2024-02-14 16:07:17,14.98337537,0.0003151,70.0008,125.6454,260.8654,99.2148,0.0001094,1.213e-05,0.0,0 STARLINK-5327,1 55291U 23010Y   24045.67172671  .00001213  00000-0  10940-3 0  9994,2 55291  70.0008 125.6454 0003151 260.8654  99.2148 14.98337537 60321,6950.17,96.107,574.225,569.845,0.0
55291.0,STARLINK-5327,PAYLOAD,2024-02-14 22:31:50,14.98327367,0.0002602,70.0025,124.97,276.7557,83.3305,4.8694e-05,4.88e-06,0.0,0 STARLINK-5327,1 55291U 23010Y   24045.93877729  .00000488  00000-0  48694-4 0  9990,2 55291  70.0025 124.9700 0002602 276.7557  83.3305 14.98327367 60053,6950.201,96.107,573.874,570.258,0.0
55291.0,STARLINK-5327,PAYLOAD,2024-02-15 14:33:11,14.98319918,0.0002799,70.0011,123.2877,259.5243,100.5601,-5.2553e-06,-1.56e-06,0.0,0 STARLINK-5327,1 55291U 23010Y   24046.60638357 -.00000156  00000-0 -52553-5 0  9991,2 55291  70.0011 123.2877 0002799 259.5243 100.5601 14.98319918 60462,6950.224,96.108,574.034,570.144,0.0
55291.0,STARLINK-5327,PAYLOAD,2024-02-16 04:58:23,14.98330926,0.0003371,70.0002,121.7744,272.0008,88.0765,3.958e-06,-4.6e-07,0.0,0 STARLINK-5327,1 55291U 23010Y   24047.20721673 -.00000046  00000-0  39580-5 0  9994,2 55291  70.0002 121.7744 0003371 272.0008  88.0765 14.98330926 60243,6950.19,96.107,574.398,569.712,0.0
55291.0,STARLINK-5327,PAYLOAD,2024-02-16 14:35:11,14.98340249,0.0003358,69.9999,120.7634,270.6381,89.4393,2.6308e-05,2.21e-06,0.0,0 STARLINK-5327,1 55291U 23010Y   24047.60776890  .00000221  00000-0  26308-4 0  9996,2 55291  69.9999 120.7634 0003358 270.6381  89.4393 14.98340249 60617,6950.161,96.106,574.36,569.692,0.0
55291.0,STARLINK-5327,PAYLOAD,2024-02-17 03:24:16,14.98325409,0.0002997,70.0019,119.4189,273.582,86.4996,1.642e-10,-9.3e-07,0.0,0 STARLINK-5327,1 55291U 23010Y   24048.14185965 -.00000093  00000-0  16420-9 0  9990,2 55291  70.0019 119.4189 0002997 273.5820  86.4996 14.98325409 60382,6950.207,96.107,574.155,569.989,0.0
55291.0,STARLINK-5327,PAYLOAD,2024-02-17 11:24:54,14.98352912,0.0003224,69.9999,118.5754,279.7252,80.3543,0.00033517,3.911e-05,0.0,0 STARLINK-5327,1 55291U 23010Y   24048.47563419  .00003911  00000-0  33517-3 0  9991,2 55291  69.9999 118.5754 0003224 279.7252  80.3543 14.98352912 60431,6950.122,96.106,574.228,569.746,0.0
55291.0,STARLINK-5327,PAYLOAD,2024-02-17 14:37:07,14.98389754,0.0003424,70.0,118.2381,277.8424,82.2346,0.00073019,8.644e-05,0.0,0 STARLINK-5327,1 55291U 23010Y   24048.60911805  .00008644  00000-0  73019-3 0  9991,2 55291  70.0000 118.2381 0003424 277.8424  82.2346 14.98389754 60764,6950.008,96.103,574.253,569.493,0.0
55291.0,STARLINK-5327,PAYLOAD,2024-02-18 11:26:57,14.98328146,0.0003522,69.9995,116.0521,270.7032,89.3723,-8.9034e-05,-1.155e-05,0.0,0 STARLINK-5327,1 55291U 23010Y   24049.47705290 -.00001155  00000-0 -89034-4 0  9993,2 55291  69.9995 116.0521 0003522 270.7032  89.3723 14.98328146 60587,6950.199,96.107,574.511,569.616,0.0
55291.0,STARLINK-5327,PAYLOAD,2024-02-18 14:39:13,14.98325013,0.0003398,69.999,115.7137,268.7845,91.2924,-0.00011905,-1.513e-05,0.0,0 STARLINK-5327,1 55291U 23010Y   24049.61057655 -.00001513  00000-0 -11905-3 0  9993,2 55291  69.9990 115.7137 0003398 268.7845  91.2924 14.98325013 60913,6950.208,96.107,574.435,569.712,0.0
55291.0,STARLINK-5327,PAYLOAD,2024-02-18 21:03:46,14.98328029,0.000351,69.999,115.0403,270.4542,89.6214,-0.0001812,-2.254e-05,0.0,0 STARLINK-5327,1 55291U 23010Y   24049.87761624 -.00002254  00000-0 -18120-3 0  9998,2 55291  69.9990 115.0403 0003510 270.4542  89.6214 14.98328029 60959,6950.199,96.107,574.504,569.624,0.0
55291.0,STARLINK-5327,PAYLOAD,2024-02-19 03:28:18,14.98320028,0.0003275,69.999,114.367,268.961,91.1174,-5.8338e-05,-7.89e-06,0.0,0 STARLINK-5327,1 55291U 23010Y   24050.14466044 -.00000789  00000-0 -58338-4 0  9995,2 55291  69.9990 114.3670 0003275 268.9610  91.1174 14.98320028 60687,6950.224,96.108,574.365,569.813,0.0
55291.0,STARLINK-5327,PAYLOAD,2024-02-19 11:28:58,14.98324781,0.0003159,69.9995,113.5256,268.794,91.2857,2.4009e-06,-6.4e-07,0.0,0 STARLINK-5327,1 55291U 23010Y   24050.47845657 -.00000064  00000-0  24009-5 0  9996,2 55291  69.9995 113.5256 0003159 268.7940  91.2857 14.98324781 60733,6950.209,96.107,574.27,569.878,0.0
